NORAD_CAT_ID,OBJECT_NAME,OBJECT_TYPE,EPOCH,MEAN_MOTION,ECCENTRICITY,INCLINATION,RA_OF_ASC_NODE,ARG_OF_PERICENTER,MEAN_ANOMALY,BSTAR,MEAN_MOTION_DOT,MEAN_MOTION_DDOT,TLE_LINE0,TLE_LINE1,TLE_LINE2,SEMIMAJOR_AXIS,PERIOD,APOGEE,PERIGEE,DECAYED
53832.0,STARLINK-4747,PAYLOAD,2024-05-15 18:00:38,15.0884907,0.0001661,53.2195,39.9164,92.8522,267.2661,-0.00020503,-3.55e-05,0.0,0 STARLINK-4747,1 53832U 22114Q   24136.75043983 -.00003550  00000-0 -20503-3 0  9994,2 53832  53.2195  39.9164 0001661  92.8522 267.2661 15.08849070 92218,6917.853,95.437,540.867,538.569,0.0
53832.0,STARLINK-4747,PAYLOAD,2024-05-15 22:46:47,15.08848794,0.0001542,53.2196,39.0233,95.4708,264.646,-0.00018135,-3.174e-05,0.0,0 STARLINK-4747,1 53832U 22114Q   24136.94915812 -.00003174  00000-0 -18135-3 0  9994,2 53832  53.2196  39.0233 0001542  95.4708 264.6460 15.08848794 92782,6917.854,95.437,540.785,538.652,0.0
53832.0,STARLINK-4747,PAYLOAD,2024-05-16 09:54:29,15.0884408,0.0001471,53.2192,36.9418,97.6781,262.4378,-8.708e-05,-1.674e-05,0.0,0 STARLINK-4747,1 53832U 22114Q   24137.41283795 -.00001674  00000-0 -87080-4 0  9994,2 53832  53.2192  36.9418 0001471  97.6781 262.4378 15.08844080 92851,6917.868,95.437,540.751,538.715,0.0
53832.0,STARLINK-4747,PAYLOAD,2024-05-16 17:51:24,15.08844081,0.0001795,53.2205,35.458,87.8599,272.2599,-1.9029e-05,-5.91e-06,0.0,0 STARLINK-4747,1 53832U 22114Q   24137.74403829 -.00000591  00000-0 -19029-4 0  9997,2 53832  53.2205  35.4580 0001795  87.8599 272.2599 15.08844081 92908,6917.868,95.437,540.975,538.491,0.0
53832.0,STARLINK-4747,PAYLOAD,2024-05-17 00:12:57,15.08844647,8.46e-05,53.2193,34.2651,75.9783,284.1303,0.00024364,3.592e-05,0.0,0 STARLINK-4747,1 53832U 22114Q   24138.00899610  .00003592  00000-0  24364-3 0  9993,2 53832  53.2193  34.2651 0000846  75.9783 284.1303 15.08844647 92407,6917.866,95.437,540.316,539.146,0.0
53832.0,STARLINK-4747,PAYLOAD,2024-05-17 09:45:15,15.08852391,5.4e-05,53.2191,32.4809,57.4627,302.6417,0.00032172,4.838e-05,0.0,0 STARLINK-4747,1 53832U 22114Q   24138.40643063  .00004838  00000-0  32172-3 0  9996,2 53832  53.2191  32.4809 0000540  57.4627 302.6417 15.08852391 93007,6917.843,95.437,540.081,539.334,0.0
53832.0,STARLINK-4747,PAYLOAD,2024-05-17 16:06:50,15.08810208,0.0001884,53.2203,31.2931,80.8368,279.2837,-0.00041641,-6.904e-05,0.0,0 STARLINK-4747,1 53832U 22114Q   24138.67141366 -.00006904  00000-0 -41641-3 0  9993,2 53832  53.2203  31.2931 0001884  80.8368 279.2837 15.08810208 92508,6917.971,95.439,541.14,538.533,0.0
53832.0,STARLINK-4747,PAYLOAD,2024-05-17 22:28:22,15.08816218,0.0001703,53.2197,30.1066,91.7094,268.4093,-0.00026522,-4.504e-05,0.0,0 STARLINK-4747,1 53832U 22114Q   24138.93637442 -.00004504  00000-0 -26522-3 0  9992,2 53832  53.2197  30.1066 0001703  91.7094 268.4093 15.08816218 93089,6917.953,95.439,540.996,538.64,0.0
53832.0,STARLINK-4747,PAYLOAD,2024-05-18 03:14:31,15.08832522,0.0001316,53.217,29.209,64.9589,295.154,7.8756e-05,9.65e-06,0.0,0 STARLINK-4747,1 53832U 22114Q   24139.13508985  .00000965  00000-0  78756-4 0  9996,2 53832  53.2170  29.2090 0001316  64.9589 295.1540 15.08832522 92570,6917.903,95.438,540.679,538.858,0.0
53832.0,STARLINK-4747,PAYLOAD,2024-05-18 09:36:04,15.08842831,0.0001428,53.219,28.0227,78.1302,281.985,0.00026156,3.878e-05,0.0,0 STARLINK-4747,1 53832U 22114Q   24139.40004656  .00003878  00000-0  26156-3 0  9994,2 53832  53.2190  28.0227 0001428  78.1302 281.9850 15.08842831 92611,6917.872,95.437,540.725,538.749,0.0
53832.0,STARLINK-4747,PAYLOAD,2024-05-18 20:43:45,15.08859425,9.9e-05,53.2158,25.9388,62.3808,297.7285,0.00056657,8.745e-05,0.0,0 STARLINK-4747,1 53832U 22114Q   24139.86371800  .00008745  00000-0  56657-3 0  9999,2 53832  53.2158  25.9388 0000990  62.3808 297.7285 15.08859425 92689,6917.821,95.436,540.371,539.001,0.0
53832.0,STARLINK-4747,PAYLOAD,2024-05-18 22:19:08,15.08864828,0.0001275,53.2171,25.639,55.3615,304.7497,0.00068215,0.00010592,0.0,0 STARLINK-4747,1 53832U 22114Q   24139.92995673  .00010592  00000-0  68215-3 0  9992,2 53832  53.2171  25.6390 0001275  55.3615 304.7497 15.08864828 93238,6917.805,95.436,540.552,538.787,0.0
53832.0,STARLINK-4747,PAYLOAD,2024-05-19 01:29:54,15.08883306,0.0001025,53.2175,25.0466,83.3164,276.7945,0.0012989,0.00020469,0.0,0 STARLINK-4747,1 53832U 22114Q   24140.06243088  .00020469  00000-0  12989-2 0  9995,2 53832  53.2175  25.0466 0001025  83.3164 276.7945 15.08883306 92713,6917.748,95.435,540.322,538.904,0.0
53832.0,STARLINK-4747,PAYLOAD,2024-05-19 20:34:33,15.08820982,0.0001259,53.2164,21.4845,64.362,295.7502,-0.00059832,-9.792e-05,0.0,0 STARLINK-4747,1 53832U 22114Q   24140.85732968 -.00009792  00000-0 -59832-3 0  9999,2 53832  53.2164  21.4845 0001259  64.3620 295.7502 15.08820982 92831,6917.939,95.439,540.674,538.933,0.0
53832.0,STARLINK-4747,PAYLOAD,2024-05-19 23:45:19,15.08832168,0.0001298,53.2175,20.8849,118.1578,241.9545,0.00014278,1.985e-05,0.0,0 STARLINK-4747,1 53832U 22114Q   24140.98980604  .00001985  00000-0  14278-3 0  9994,2 53832  53.2175  20.8849 0001298 118.1578 241.9545 15.08832168 92854,6917.904,95.438,540.667,538.871,0.0
53832.0,STARLINK-4747,PAYLOAD,2024-05-20 22:00:43,15.08853258,0.000136,53.2175,16.7251,96.0531,264.0616,0.0013262,0.00020889,0.0,0 STARLINK-4747,1 53832U 22114Q   24141.91717406  .00020889  00000-0  13262-2 0  9991,2 53832  53.2175  16.7251 0001360  96.0531 264.0616 15.08853258 92991,6917.84,95.437,540.646,538.764,0.0
53832.0,STARLINK-4747,PAYLOAD,2024-05-21 20:16:07,15.08855365,0.0001252,53.2185,12.5637,109.5861,250.5266,0.00076561,0.00011923,0.0,0 STARLINK-4747,1 53832U 22114Q   24142.84453261  .00011923  00000-0  76561-3 0  9991,2 53832  53.2185  12.5637 0001252 109.5861 250.5266 15.08855365 93139,6917.833,95.437,540.565,538.832,0.0
53832.0,STARLINK-4747,PAYLOAD,2024-05-21 21:51:30,15.08855979,0.0001162,53.2184,12.2662,104.0341,256.078,0.00080143,0.00012495,0.0,0 STARLINK-4747,1 53832U 22114Q   24142.91077243  .00012495  00000-0  80143-3 0  9997,2 53832  53.2184  12.2662 0001162 104.0341 256.0780 15.08855979 93689,6917.832,95.437,540.5,538.893,0.0
53832.0,STARLINK-4747,PAYLOAD,2024-05-22 01:02:16,15.08859499,0.0001075,53.2179,11.6687,100.3869,259.7244,0.00089677,0.00014021,0.0,0 STARLINK-4747,1 53832U 22114Q   24143.04325089  .00014021  00000-0  89677-3 0  9994,2 53832  53.2179  11.6687 0001075 100.3869 259.7244 15.08859499 93709,6917.821,95.436,540.429,538.942,0.0
53832.0,STARLINK-4747,PAYLOAD,2024-05-22 20:06:54,15.08838148,0.0001346,53.2178,8.0924,126.5939,233.5177,0.0009556,0.00014952,0.0,0 STARLINK-4747,1 53832U 22114Q   24143.83813361  .00014952  00000-0  95560-3 0  9997,2 53832  53.2178   8.0924 0001346 126.5939 233.5177 15.08838148 93287,6917.886,95.438,540.682,538.82,0.0
53832.0,STARLINK-4747,PAYLOAD,2024-05-22 21:42:17,15.08843219,0.0001255,53.2181,7.7947,114.5993,245.513,0.00032059,4.818e-05,0.0,0 STARLINK-4747,1 53832U 22114Q   24143.90437293  .00004818  00000-0  32059-3 0  9995,2 53832  53.2181   7.7947 0001255 114.5993 245.5130 15.08843219 93836,6917.871,95.437,540.604,538.867,0.0
53832.0,STARLINK-4747,PAYLOAD,2024-05-23 21:33:04,15.0884613,0.000131,53.2187,3.3346,98.0253,262.0888,0.00041237,6.282e-05,0.0,0 STARLINK-4747,1 53832U 22114Q   24144.89797315  .00006282  00000-0  41237-3 0  9993,2 53832  53.2187   3.3346 0001310  98.0253 262.0888 15.08846130 93440,6917.862,95.437,540.633,538.82,0.0
53832.0,STARLINK-4747,PAYLOAD,2024-05-24 15:02:19,15.08844429,0.000162,53.219,0.0683,120.5333,239.5819,2.387e-05,9.2e-07,0.0,0 STARLINK-4747,1 53832U 22114Q   24145.62661116  .00000092  00000-0  23870-4 0  9991,2 53832  53.2190   0.0683 0001620 120.5333 239.5819 15.08844429 94090,6917.867,95.437,540.853,538.611,0.0
53832.0,STARLINK-4747,PAYLOAD,2024-05-24 21:23:51,15.08842305,0.0001232,53.2184,358.8851,108.4409,251.6717,9.1992e-05,1.177e-05,0.0,0 STARLINK-4747,1 53832U 22114Q   24145.89157274  .00001177  00000-0  91992-4 0  9990,2 53832  53.2184 358.8851 0001232 108.4409 251.6717 15.08842305 93599,6917.873,95.437,540.591,538.886,0.0
53832.0,STARLINK-4747,PAYLOAD,2024-05-25 06:56:10,15.08836118,0.0001331,53.2176,357.0974,114.4504,245.6627,-4.8852e-05,-1.065e-05,0.0,0 STARLINK-4747,1 53832U 22114Q   24146.28901618 -.00001065  00000-0 -48852-4 0  9998,2 53832  53.2176 357.0974 0001331 114.4504 245.6627 15.08836118 93655,6917.892,95.438,540.678,538.836,0.0
53832.0,STARLINK-4747,PAYLOAD,2024-05-25 21:14:38,15.0884479,0.0001173,53.2179,354.4309,125.4071,234.703,5.3348e-05,5.61e-06,0.0,0 STARLINK-4747,1 53832U 22114Q   24146.88517220  .00000561  00000-0  53348-4 0  9990,2 53832  53.2179 354.4309 0001173 125.4071 234.7030 15.08844790 93748,6917.866,95.437,540.542,538.919,0.0
53832.0,STARLINK-4747,PAYLOAD,2024-05-25 22:50:01,15.08845755,0.000102,53.2177,354.124,111.5105,248.5996,7.168e-05,8.53e-06,0.0,0 STARLINK-4747,1 53832U 22114Q   24146.95141115  .00000853  00000-0  71680-4 0  9997,2 53832  53.2177 354.1240 0001020 111.5105 248.5996 15.08845755 94299,6917.863,95.437,540.433,539.022,0.0
53832.0,STARLINK-4747,PAYLOAD,2024-05-26 21:05:26,15.08842252,9.33e-05,53.2172,349.9708,116.3477,243.7611,0.00011948,1.614e-05,0.0,0 STARLINK-4747,1 53832U 22114Q   24147.87877512  .00001614  00000-0  11948-3 0  9992,2 53832  53.2172 349.9708 0000933 116.3477 243.7611 15.08842252 93897,6917.874,95.437,540.384,539.093,0.0
53832.0,STARLINK-4747,PAYLOAD,2024-05-26 22:40:49,15.08845286,0.0001083,53.2179,349.6619,97.722,262.3895,0.00017651,2.523e-05,0.0,0 STARLINK-4747,1 53832U 22114Q   24147.94501437  .00002523  00000-0  17651-3 0  9997,2 53832  53.2179 349.6619 0001083  97.7220 262.3895 15.08845286 94440,6917.864,95.437,540.478,538.98,0.0
53832.0,STARLINK-4747,PAYLOAD,2024-05-27 06:37:41,15.08869829,0.0006598,53.2183,348.1727,252.3428,107.6844,0.00078454,0.00012234,0.0,0 STARLINK-4747,1 53832U 22114Q   24148.27617415  .00012234  00000-0  78454-3 0  9996,2 53832  53.2183 348.1727 0006598 252.3428 107.6844 15.08869829 93953,6917.789,95.436,544.219,535.09,0.0
